[{"OBJECT_NAME":"OBJECT F","OBJECT_ID":"2024-024F","EPOCH":"2026-03-09T22:33:03.733056","MEAN_MOTION":15.20287854,"ECCENTRICITY":0.00130865,"INCLINATION":97.3129,"RA_OF_ASC_NODE":136.438,"ARG_OF_PERICENTER":36.354,"MEAN_ANOMALY":323.8582,"EPHEMERIS_TYPE":0,"CLASSIFICATION_TYPE":"U","NORAD_CAT_ID":58922,"ELEMENT_SET_NO":999,"REV_AT_EPOCH":11617,"BSTAR":0.00052703625,"MEAN_MOTION_DOT":0.00011414,"MEAN_MOTION_DDOT":0},{"OBJECT_NAME":"DCS-1","OBJECT_ID":"2025-313R","EPOCH":"2026-03-09T22:34:45.868224","MEAN_MOTION":15.21562848,"ECCENTRICITY":0.00145796,"INCLINATION":97.4021,"RA_OF_ASC_NODE":145.2125,"ARG_OF_PERICENTER":357.8679,"MEAN_ANOMALY":2.2492,"EPHEMERIS_TYPE":0,"CLASSIFICATION_TYPE":"U","NORAD_CAT_ID":67263,"ELEMENT_SET_NO":999,"REV_AT_EPOCH":1085,"BSTAR":0.0005215367,"MEAN_MOTION_DOT":0.00011729,"MEAN_MOTION_DDOT":0}]
